{
  "type": "FeatureCollection",
  "features": [
    {
      "type": "Feature",
      "geometry": {
        "type": "LineString",
        "coordinates": [
          [
            72.3499688004768,
            18.600009141512395
          ],
          [
            72.3510742212261,
            18.60071402528027
          ],
          [
            72.35221292463008,
            18.60141238197835
          ],
          [
            72.35330696483969,
            18.60208003470878
          ],
          [
            72.35444484823934,
            18.602791745732464
          ],
          [
            72.35546600138358,
            18.6034617294103
          ],
          [
            72.35661460917443,
            18.604164124810637
          ],
          [
            72.35767283562834,
            18.604911993226803
          ],
          [
            72.35875661826435,
            18.605582175501333
          ],
          [
            72.35986433710836,
            18.60634389908674
          ],
          [
            72.36097031385638,
            18.607012432283
          ],
          [
            72.3621530378974,
            18.60769838652348
          ],
          [
            72.36319877712421,
            18.608395300863076
          ],
          [
            72.3643331886613,
            18.60908767218308
          ],
          [
            72.36538816184631,
            18.60981929980384
          ],
          [
            72.36646020821846,
            18.61052747707627
          ],
          [
            72.3676068468499,
            18.611202714693448
          ],
          [
            72.36868411681716,
            18.611868127567647
          ],
          [
            72.36977039428764,
            18.612651860929333
          ],
          [
            72.37091055269224,
            18.613304662879838
          ],
          [
            72.3719476624204,
            18.614014404302104
          ],
          [
            72.37310529537264,
            18.614692894492062
          ],
          [
            72.37425196934815,
            18.61541747965726
          ],
          [
            72.37532252606965,
            18.616135137412808
          ],
          [
            72.37640936028414,
            18.61677986579168
          ],
          [
            72.37752539751958,
            18.61751105069838
          ],
          [
            72.37864444366642,
            18.61819624972909
          ],
          [
            72.37968626901707,
            18.618948127630844
          ],
          [
            72.38081378157314,
            18.619585846718994
          ],
          [
            72.38192488557125,
            18.62029647373498
          ],
          [
            72.38297487805328,
            18.621002763799755
          ],
          [
            72.3840818499786,
            18.621727848909742
          ],
          [
            72.38521150131339,
            18.62243343777334
          ],
          [
            72.38623781049691,
            18.6230523129752
          ],
          [
            72.38736574185322,
            18.623831915545985
          ],
          [
            72.38851099594221,
            18.62453255861013
          ],
          [
            72.38958369513475,
            18.625111064134867
          ],
          [
            72.39074886810842,
            18.625926934462253
          ],
          [
            72.39181357001851,
            18.62658654307376
          ],
          [
            72.39286974391874,
            18.62730610164722
          ],
          [
            72.39401002885384,
            18.627997879588552
          ],
          [
            72.39505635532544,
            18.628705695301782
          ],
          [
            72.39624833348445,
            18.62940706345105
          ],
          [
            72.39728117237391,
            18.63013823341651
          ],
          [
            72.39840724933565,
            18.630821414604096
          ],
          [
            72.39957647983857,
            18.63154832810985
          ],
          [
            72.40059573990357,
            18.63218988024514
          ],
          [
            72.40169028624886,
            18.63293637556511
          ],
          [
            72.40276049509367,
            18.63357858375528
          ],
          [
            72.4039449512332,
            18.63432372405164
          ],
          [
            72.40499264818047,
            18.63503338897675
          ],
          [
            72.40606352327227,
            18.635693679299568
          ],
          [
            72.40716641392373,
            18.636365795172427
          ],
          [
            72.4082442049378,
            18.637069381309416
          ],
          [
            72.40942565057972,
            18.63777237448807
          ],
          [
            72.410540776618,
            18.638551869860223
          ],
          [
            72.41160746361929,
            18.63920034336317
          ],
          [
            72.41270116739621,
            18.639930775105288
          ],
          [
            72.41378488126776,
            18.64060758654445
          ],
          [
            72.41489647167433,
            18.64130092751834
          ],
          [
            72.4280010672943,
            18.650057151806426
          ],
          [
            72.42655363591096,
            18.65459696876824
          ],
          [
            72.4227347635285,
            18.65749999474224
          ],
          [
            72.4178942884914,
            18.657694073463283
          ],
          [
            72.41384577491627,
            18.65512202035832
          ],
          [
            72.41204235341428,
            18.650674693266545
          ],
          [
            72.41312826201613,
            18.645995015264734
          ],
          [
            72.41664503296522,
            18.64277774638765
          ],
          [
            72.42135431255792,
            18.64213586385602
          ],
          [
            72.42563458848667,
            18.644335470788366
          ],
          [
            72.42783254056638,
            18.648624715672845
          ],
          [
            72.4272610439012,
            18.653377654068475
          ],
          [
            72.4240113652781,
            18.65695089067518
          ],
          [
            72.41932123809806,
            18.65798185243845
          ],
          [
            72.41484096598212,
            18.65615793963446
          ],
          [
            72.41226647133216,
            18.652033299694956
          ],
          [
            72.41248065147832,
            18.647244507839787
          ],
          [
            72.4154544475139,
            18.643429186093133
          ],
          [
            72.4200054109183,
            18.642023847967582
          ],
          [
            72.42456477350716,
            18.643406109226557
          ],
          [
            72.4275176342228,
            18.64727734837173
          ],
          [
            72.4277660599378,
            18.652065604227555
          ],
          [
            72.42517320673959,
            18.65615892685575
          ],
          [
            72.42065202617255,
            18.65796191933964
          ],
          [
            72.41600445881285,
            18.656905343996524
          ],
          [
            72.41277976302683,
            18.653426899460644
          ],
          [
            72.41210131160206,
            18.64859129767005
          ],
          [
            72.41438289442088,
            18.64430728498128
          ],
          [
            72.41861340974492,
            18.642086014125944
          ],
          [
            72.42332671518814,
            18.64273717322235
          ],
          [
            72.42693112563266,
            18.64602998008997
          ],
          [
            72.42797025824422,
            18.6506785379213
          ],
          [
            72.42615308153354,
            18.6552024061598
          ],
          [
            72.42209316801292,
            18.65774583472346
          ],
          [
            72.41727512018448,
            18.657511452707976
          ],
          [
            72.41341454066529,
            18.65453227182783
          ],
          [
            72.41206929533267,
            18.64996902808941
          ],
          [
            72.42799238111965,
            18.6499876898008
          ],
          [
            72.42895184186258,
            18.650412145652627
          ],
          [
            72.42996740296421,
            18.65083746273317
          ],
          [
            72.43099028045673,
            18.651235475922253
          ],
          [
            72.43197443523583,
            18.65164103722352
          ],
          [
            72.43302236496719,
            18.65201963978585
          ],
          [
            72.43404316116447,
            18.652358279437102
          ],
          [
            72.43500272227692,
            18.65286898767279
          ],
          [
            72.43603375131764,
            18.65320328456078
          ],
          [
            72.43697571541043,
            18.653623328285907
          ],
          [
            72.43796455562797,
            18.65402135931069
          ],
          [
            72.43894007599921,
            18.654426868157294
          ],
          [
            72.4399948883473,
            18.654835955595093
          ],
          [
            72.44102519767816,
            18.655192173005307
          ],
          [
            72.44198114886674,
            18.655558722592342
          ],
          [
            72.44295238705098,
            18.65602189147021
          ],
          [
            72.44397890792757,
            18.65641650607488
          ],
          [
            72.44500715802373,
            18.656809625489387
          ],
          [
            72.44599242877625,
            18.65720864657189
          ],
          [
            72.44703396156865,
            18.65760577263353
          ],
          [
            72.44799388654415,
            18.65800024845729
          ],
          [
            72.44898843110055,
            18.658416088909075
          ],
          [
            72.4500000599807,
            18.65880671902285
          ],
          [
            72.45096923769616,
            18.659154979917915
          ],
          [
            72.45201230636047,
            18.65956252820088
          ],
          [
            72.452995081395,
            18.660030747650797
          ],
          [
            72.45405768838582,
            18.66038011895775
          ],
          [
            72.45499431333465,
            18.660758949971072
          ],
          [
            72.45598143160342,
            18.66117676469815
          ],
          [
            72.45699567146863,
            18.66156844338181
          ],
          [
            72.4580438706579,
            18.661966357068614
          ],
          [
            72.45899097706246,
            18.66240821527195
          ],
          [
            72.45999998310708,
            18.66281431105381
          ],
          [
            72.46102307708624,
            18.66313676931837
          ],
          [
            72.46200263888689,
            18.663617359849013
          ],
          [
            72.46301984134568,
            18.663988463496697
          ],
          [
            72.46403072296519,
            18.664442375392092
          ],
          [
            72.46505426743627,
            18.66482189486367
          ],
          [
            72.46597650460414,
            18.665230735380263
          ],
          [
            72.46696517264131,
            18.665618573150557
          ],
          [
            72.46795601442052,
            18.66599048139824
          ],
          [
            72.46903880529905,
            18.66637410443013
          ],
          [
            72.46997272691334,
            18.666777435173955
          ],
          [
            72.47098078529785,
            18.66720492961978
          ],
          [
            72.47202309570679,
            18.66755978931376
          ],
          [
            72.47295919269688,
            18.66797581154538
          ],
          [
            72.47400755563247,
            18.6684130202947
          ],
          [
            72.47498019099652,
            18.668799157507745
          ],
          [
            72.47598519595373,
            18.66923924739821
          ],
          [
            72.47697016994675,
            18.66955862552246
          ],
          [
            72.47796721314276,
            18.669981918419108
          ],
          [
            72.47899215314297,
            18.670340667528126
          ],
          [
            72.47998596071061,
            18.67079714142639
          ],
          [
            72.48094856542313,
            18.67120769976192
          ],
          [
            72.48199222372222,
            18.671614681518165
          ],
          [
            72.48303205386202,
            18.67201266867057
          ],
          [
            72.48401182712948,
            18.67248111955322
          ],
          [
            72.48497571638812,
            18.672809975969397
          ],
          [
            72.48596767250258,
            18.67317447541133
          ],
          [
            72.48700052003888,
            18.67354778491033
          ],
          [
            72.48797559828763,
            18.673993545525025
          ],
          [
            72.48905334962721,
            18.674438750593968
          ],
          [
            72.49001737845913,
            18.6748045276458
          ],
          [
            72.49097582019174,
            18.67523688127153
          ],
          [
            72.49196452648282,
            18.67563101358504
          ],
          [
            72.49298633556253,
            18.675944609889665
          ],
          [
            72.49400830876026,
            18.676433148214667
          ],
          [
            72.49497749994791,
            18.67687717552311
          ],
          [
            72.49600837724661,
            18.67722479221929
          ],
          [
            72.49701550108456,
            18.67752849833891
          ],
          [
            72.49802531810674,
            18.67803148495817
          ],
          [
            72.49900592668847,
            18.678398882522423
          ]
        ]
      },
      "properties": {
        "candidate_id": "candidate-68f8b1f0ac34",
        "rank": 1,
        "investigative_priority_score": 0.8721806410674144,
        "point_count": 169,
        "time_start_utc": "2026-08-19T04:30:00+00:00",
        "time_end_utc": "2026-08-19T18:30:00+00:00"
      }
    },
    {
      "type": "Feature",
      "geometry": {
        "type": "LineString",
        "coordinates": [
          [
            72.17997395640987,
            18.499960979296223
          ],
          [
            72.18279900148178,
            18.501817569006025
          ],
          [
            72.18558372454544,
            18.503589755145416
          ],
          [
            72.18840447191097,
            18.50541742857556
          ],
          [
            72.19119330229941,
            18.50716634260457
          ],
          [
            72.19401380970709,
            18.50900284851472
          ],
          [
            72.19680893062353,
            18.510809614933176
          ],
          [
            72.19961475031137,
            18.51259287472058
          ],
          [
            72.20240043704293,
            18.514404653524224
          ],
          [
            72.20517246627705,
            18.51619220380394
          ],
          [
            72.2079916928548,
            18.517983741178096
          ],
          [
            72.21077630112468,
            18.51979001408803
          ],
          [
            72.21357548788474,
            18.52159090033039
          ],
          [
            72.21637551061937,
            18.523403664688743
          ],
          [
            72.21922814963723,
            18.525206751490977
          ],
          [
            72.22202005515652,
            18.526993446538118
          ],
          [
            72.22479425233277,
            18.528782935132988
          ],
          [
            72.22757065909511,
            18.53056484543217
          ],
          [
            72.23039247687858,
            18.53240869532149
          ],
          [
            72.23320632988525,
            18.534185568839327
          ],
          [
            72.23599056950385,
            18.535977791386312
          ],
          [
            72.23880655990969,
            18.537764865564352
          ],
          [
            72.24160877986318,
            18.539634878690524
          ],
          [
            72.24439866093655,
            18.541368559194886
          ],
          [
            72.24720608733459,
            18.54315417420983
          ],
          [
            72.2500046575604,
            18.54502136943112
          ],
          [
            72.25281688770382,
            18.54680404612384
          ],
          [
            72.25557496705572,
            18.54856795480918
          ],
          [
            72.25840458422749,
            18.550415202661707
          ],
          [
            72.2611533276776,
            18.55217035629205
          ],
          [
            72.26399283966624,
            18.553982237322924
          ],
          [
            72.26680855780882,
            18.55578691433447
          ],
          [
            72.26964153961059,
            18.5576390202512
          ],
          [
            72.27243874462326,
            18.55939413616827
          ],
          [
            72.27522866429014,
            18.56120446159485
          ],
          [
            72.27801871094252,
            18.56299382653889
          ],
          [
            72.28080930160421,
            18.56478880855428
          ],
          [
            72.28359617312027,
            18.566626715686727
          ],
          [
            72.28642295625322,
            18.568389224573647
          ],
          [
            72.28921113066886,
            18.570207700758758
          ],
          [
            72.29201478825345,
            18.57201800369128
          ],
          [
            72.29480726908676,
            18.573794949653312
          ],
          [
            72.29756696481704,
            18.575636425977017
          ],
          [
            72.30040896198729,
            18.577415258529648
          ],
          [
            72.30320064215348,
            18.57919118695157
          ],
          [
            72.30599427554101,
            18.58099379032048
          ],
          [
            72.30879219072102,
            18.58280328781406
          ],
          [
            72.31159315318124,
            18.5845819515381
          ],
          [
            72.31440840377198,
            18.586447652045656
          ],
          [
            72.31719508477002,
            18.58820628154448
          ],
          [
            72.31998048082369,
            18.590020983472428
          ],
          [
            72.32277955439437,
            18.59179298095236
          ],
          [
            72.32559624658019,
            18.59361097477637
          ],
          [
            72.32841032595144,
            18.59543595189045
          ],
          [
            72.33121270742286,
            18.597224993305343
          ],
          [
            72.33400405594554,
            18.599000241063614
          ],
          [
            72.33679697896245,
            18.60077835145605
          ],
          [
            72.33960758560069,
            18.60260689209809
          ],
          [
            72.34240488208779,
            18.604391960148394
          ],
          [
            72.34523122876404,
            18.60620791867749
          ],
          [
            72.34800730948946,
            18.608002621156523
          ],
          [
            72.35081333145338,
            18.609761260661347
          ],
          [
            72.35360126004737,
            18.611614485653547
          ],
          [
            72.35639137321124,
            18.61342489894757
          ],
          [
            72.35920205106368,
            18.61520779383411
          ],
          [
            72.36202315015517,
            18.6170197481029
          ],
          [
            72.36480151426576,
            18.6187953546134
          ],
          [
            72.36762400612517,
            18.62060981533418
          ],
          [
            72.37044485840624,
            18.62239031939737
          ],
          [
            72.3731978763614,
            18.624194344085016
          ],
          [
            72.37601263962968,
            18.626007487729037
          ],
          [
            72.37881647506265,
            18.62780261528376
          ],
          [
            72.38156689809314,
            18.629589985105124
          ],
          [
            72.38440072119855,
            18.631356395798708
          ],
          [
            72.38721947788257,
            18.633180904163652
          ],
          [
            72.39002944029133,
            18.63497245368689
          ],
          [
            72.3927984528764,
            18.636828902519134
          ],
          [
            72.39560123832968,
            18.638608651889037
          ],
          [
            72.39840989113311,
            18.640431583710058
          ],
          [
            72.40119456651233,
            18.642229747965796
          ],
          [
            72.40399459689742,
            18.64399631648507
          ],
          [
            72.40680007592503,
            18.645798224071047
          ],
          [
            72.40958877033948,
            18.647605452905267
          ],
          [
            72.41243603483896,
            18.649449148481843
          ],
          [
            72.41521709371462,
            18.65117359022032
          ],
          [
            72.41803920969203,
            18.653038675869706
          ],
          [
            72.42080595022142,
            18.654845632657548
          ],
          [
            72.42361565117652,
            18.656608219651535
          ],
          [
            72.42641141074073,
            18.658400531706828
          ],
          [
            72.42923033585315,
            18.66021934598472
          ],
          [
            72.43199769002241,
            18.661999008823248
          ],
          [
            72.43479563941744,
            18.663807273963005
          ],
          [
            72.43755741604222,
            18.665592108542963
          ],
          [
            72.4404246580387,
            18.66738007162748
          ],
          [
            72.44318878491673,
            18.66918478982304
          ],
          [
            72.44603718989616,
            18.671008239431643
          ],
          [
            72.44879781709697,
            18.672818318606044
          ],
          [
            72.45161724000103,
            18.674565335817935
          ],
          [
            72.45440354522735,
            18.67641112150548
          ],
          [
            72.45722954787269,
            18.678186561759528
          ],
          [
            72.46001389341224,
            18.679988386971942
          ],
          [
            72.46280056044374,
            18.681819422780137
          ],
          [
            72.46556729073504,
            18.683582636131387
          ],
          [
            72.46843032880201,
            18.68544651559584
          ],
          [
            72.47118550777898,
            18.687219259211467
          ],
          [
            72.47399674402007,
            18.688996184790792
          ],
          [
            72.47680357481927,
            18.690806567359456
          ],
          [
            72.47960660579892,
            18.692626502934576
          ],
          [
            72.48242624050526,
            18.694385702468765
          ],
          [
            72.48520618783141,
            18.69621110720457
          ],
          [
            72.48799526682352,
            18.6980272770065
          ],
          [
            72.49079708379085,
            18.69981618242622
          ],
          [
            72.49359974122464,
            18.70160683017371
          ],
          [
            72.49641885531604,
            18.70335311313383
          ],
          [
            72.49922265379641,
            18.70519890130268
          ],
          [
            72.50201064258749,
            18.70698643856943
          ],
          [
            72.50482155686711,
            18.70880750124304
          ],
          [
            72.50761296788023,
            18.71055171784298
          ],
          [
            72.51036480368585,
            18.712407769484017
          ],
          [
            72.5131680389525,
            18.71419821359195
          ],
          [
            72.51601280427319,
            18.715987209932184
          ],
          [
            72.51880407266358,
            18.717765245708097
          ],
          [
            72.52159773663182,
            18.719612819814387
          ],
          [
            72.52438941455387,
            18.72138118939569
          ],
          [
            72.5272295478733,
            18.723192227336376
          ],
          [
            72.53001257592587,
            18.725021983831112
          ],
          [
            72.53285619137941,
            18.72678164492925
          ],
          [
            72.53558033168044,
            18.728551272486737
          ],
          [
            72.53839703855192,
            18.730393453891395
          ],
          [
            72.5411605233226,
            18.7321609436894
          ],
          [
            72.54401347588788,
            18.73398240715145
          ],
          [
            72.54678198615633,
            18.735829565578715
          ],
          [
            72.54961344228632,
            18.737594013241846
          ],
          [
            72.55241357047903,
            18.73939581935488
          ],
          [
            72.55522844212702,
            18.74121449709343
          ],
          [
            72.55798836812131,
            18.74299467172932
          ],
          [
            72.56080870916672,
            18.74479060326983
          ],
          [
            72.56362257982202,
            18.74656156990939
          ],
          [
            72.56637676131187,
            18.74839933410521
          ],
          [
            72.56920490742019,
            18.750201128231343
          ],
          [
            72.57200970187738,
            18.75198531224485
          ],
          [
            72.5748097733705,
            18.75383150165655
          ],
          [
            72.57761930340986,
            18.75560463320889
          ],
          [
            72.5803777813781,
            18.757398116108494
          ],
          [
            72.58318420027292,
            18.7592002936028
          ],
          [
            72.58601473673063,
            18.76100227496307
          ],
          [
            72.58877754085903,
            18.762802045133192
          ],
          [
            72.59160759375163,
            18.76460545725036
          ],
          [
            72.59440107505127,
            18.7663993105027
          ],
          [
            72.59721258808013,
            18.768203902079463
          ],
          [
            72.59998975877163,
            18.769994406463372
          ],
          [
            72.60281545079616,
            18.771804301962717
          ],
          [
            72.60560648178446,
            18.773592439214163
          ],
          [
            72.60841873138712,
            18.77538114640171
          ],
          [
            72.61118112092952,
            18.777189569227104
          ],
          [
            72.61400103396643,
            18.77900670084735
          ],
          [
            72.61681097965749,
            18.780840218522247
          ],
          [
            72.61961209583166,
            18.782601816000472
          ],
          [
            72.62239803852864,
            18.78440022555393
          ],
          [
            72.62517844877343,
            18.786209701635343
          ],
          [
            72.6279875896276,
            18.78800984593824
          ],
          [
            72.63081101848762,
            18.78982169172783
          ],
          [
            72.63361816786595,
            18.7916126254946
          ],
          [
            72.63644554860898,
            18.79341394976624
          ],
          [
            72.63918219958501,
            18.795190195557
          ],
          [
            72.64200732665869,
            18.79700992241416
          ],
          [
            72.6448199934804,
            18.798803389477424
          ],
          [
            72.64759622827735,
            18.800558904773848
          ],
          [
            72.65040647980513,
            18.802403001622604
          ]
        ]
      },
      "properties": {
        "candidate_id": "candidate-7669d2a91e2d",
        "rank": 2,
        "investigative_priority_score": 0.6307190115705027,
        "point_count": 169,
        "time_start_utc": "2026-08-19T04:30:00+00:00",
        "time_end_utc": "2026-08-19T18:30:00+00:00"
      }
    },
    {
      "type": "Feature",
      "geometry": {
        "type": "LineString",
        "coordinates": [
          [
            72.74998293912145,
            18.89999966397685
          ],
          [
            72.74849690941036,
            18.89932445082677
          ],
          [
            72.74698319687046,
            18.898597721050844
          ],
          [
            72.74551262576452,
            18.897905782387973
          ],
          [
            72.74401586694471,
            18.897214224531595
          ],
          [
            72.74249381306922,
            18.89651251180788
          ],
          [
            72.74099840563578,
            18.89579153403376
          ],
          [
            72.73949321933848,
            18.8950809995589
          ],
          [
            72.7380035855127,
            18.894379530050145
          ],
          [
            72.73647968841838,
            18.89367058387411
          ],
          [
            72.73500314097134,
            18.89302131960461
          ],
          [
            72.73348357226642,
            18.892342569394646
          ],
          [
            72.73200319983228,
            18.891631581825123
          ],
          [
            72.73049640961574,
            18.890934473314413
          ],
          [
            72.72899902563196,
            18.89015899655798
          ],
          [
            72.72748608114777,
            18.88949690988641
          ],
          [
            72.72602411707241,
            18.888806312100076
          ],
          [
            72.72453673827057,
            18.88807806428843
          ],
          [
            72.7229946722502,
            18.88739523652512
          ],
          [
            72.72150771693106,
            18.88673146709805
          ],
          [
            72.71999793023464,
            18.885994156576285
          ],
          [
            72.71849342949554,
            18.885317276560272
          ],
          [
            72.71698605152353,
            18.884601330916315
          ],
          [
            72.71551275067623,
            18.88393022456866
          ],
          [
            72.71395873523446,
            18.88323232419363
          ],
          [
            72.7124970494264,
            18.882482733094704
          ],
          [
            72.71101683640134,
            18.88181713587965
          ],
          [
            72.70951048375686,
            18.88110879273212
          ],
          [
            72.70800393552193,
            18.88039640777172
          ],
          [
            72.70650395580165,
            18.879694302318672
          ],
          [
            72.70500785654936,
            18.87897235636969
          ],
          [
            72.70352641323312,
            18.87830723843708
          ],
          [
            72.70198308677934,
            18.877621524803143
          ],
          [
            72.70049185843529,
            18.876906954169048
          ],
          [
            72.69899659184837,
            18.87619886433611
          ],
          [
            72.6974700987834,
            18.875460183760097
          ],
          [
            72.69599827798696,
            18.874801989549457
          ],
          [
            72.69450262971634,
            18.874129100911524
          ],
          [
            72.69298347541067,
            18.87336627063697
          ],
          [
            72.69149385833563,
            18.87269825811658
          ],
          [
            72.69000375947175,
            18.872010968558417
          ],
          [
            72.68847855733958,
            18.871294124421595
          ],
          [
            72.68701625202576,
            18.87058958823174
          ],
          [
            72.68550470552223,
            18.869879313838965
          ],
          [
            72.68398933095305,
            18.869209422725863
          ],
          [
            72.68251049014751,
            18.86851159122285
          ],
          [
            72.68097792518604,
            18.86783335775222
          ],
          [
            72.67950964133672,
            18.86706768683321
          ],
          [
            72.67801250170402,
            18.866416335517343
          ],
          [
            72.67648435167332,
            18.865683465899057
          ],
          [
            72.67501294969381,
            18.864995569277685
          ],
          [
            72.6734700672262,
            18.864254385243093
          ],
          [
            72.67201614016564,
            18.86361555534778
          ],
          [
            72.67049401470592,
            18.862900229025836
          ],
          [
            72.6689643277774,
            18.86220681582816
          ],
          [
            72.66747394695767,
            18.861501207718568
          ],
          [
            72.66600782529319,
            18.86081022443629
          ],
          [
            72.66447511588242,
            18.86009735542687
          ],
          [
            72.66302875553879,
            18.85939037517752
          ],
          [
            72.66148211307909,
            18.858684942161656
          ],
          [
            72.6600193799574,
            18.8579858547094
          ],
          [
            72.65850167962007,
            18.85729883177512
          ],
          [
            72.65699558065364,
            18.85659975361414
          ],
          [
            72.65548884542225,
            18.855883339265542
          ],
          [
            72.65404120596341,
            18.855187555851096
          ],
          [
            72.65246238403144,
            18.85452726857424
          ],
          [
            72.65103294787995,
            18.853823306150712
          ],
          [
            72.64944138811249,
            18.85310671682513
          ],
          [
            72.64800262054231,
            18.85243233748797
          ],
          [
            72.64647916824735,
            18.851680005755423
          ],
          [
            72.64499034419683,
            18.85099394760481
          ],
          [
            72.64351267820756,
            18.85029171053868
          ],
          [
            72.64199452298989,
            18.84960104346637
          ],
          [
            72.64050405550097,
            18.848923752687853
          ],
          [
            72.63898281587963,
            18.84818475353084
          ],
          [
            72.63750889453637,
            18.847502366958267
          ],
          [
            72.6359681441148,
            18.84679541414693
          ],
          [
            72.63446912749595,
            18.846072037806803
          ],
          [
            72.63301228198354,
            18.845422601986325
          ],
          [
            72.63150157977432,
            18.844702040625943
          ],
          [
            72.62995805098085,
            18.843995122077796
          ],
          [
            72.62848913658338,
            18.84325996908511
          ],
          [
            72.62702945907144,
            18.842600026796934
          ],
          [
            72.62546183739174,
            18.84187701592005
          ],
          [
            72.62397247225002,
            18.841199787226465
          ],
          [
            72.62247883437898,
            18.84052969837573
          ],
          [
            72.62098572892037,
            18.83979628086645
          ],
          [
            72.61948846705415,
            18.83911457428468
          ],
          [
            72.61797997417133,
            18.838425539616644
          ],
          [
            72.6164874303054,
            18.83768549216956
          ],
          [
            72.6150118710939,
            18.83701300498011
          ],
          [
            72.61351591677311,
            18.8362597179481
          ],
          [
            72.61198677166215,
            18.835568487613457
          ],
          [
            72.61051609140604,
            18.834876399984427
          ],
          [
            72.60901934932545,
            18.834204575400577
          ],
          [
            72.60749572390884,
            18.833554214910546
          ],
          [
            72.60600705254407,
            18.832774162354635
          ],
          [
            72.60452657262134,
            18.83207746024179
          ],
          [
            72.60294265890091,
            18.8314245206782
          ],
          [
            72.60153724635123,
            18.83066257563768
          ],
          [
            72.60001026399621,
            18.82999982410621
          ],
          [
            72.5985280237255,
            18.82930781061193
          ],
          [
            72.5969408876235,
            18.828591200245903
          ],
          [
            72.59551019796497,
            18.82789348909977
          ],
          [
            72.59400080513004,
            18.827219771064847
          ],
          [
            72.59253411705362,
            18.826492186447947
          ],
          [
            72.59097856597346,
            18.825787549196946
          ],
          [
            72.5894991373282,
            18.82505785615305
          ],
          [
            72.5879450064796,
            18.82437463972166
          ],
          [
            72.58648081144494,
            18.823740175107723
          ],
          [
            72.58500791018213,
            18.82301102383457
          ],
          [
            72.58347706335836,
            18.82228366849785
          ],
          [
            72.58202057561839,
            18.82160058847151
          ],
          [
            72.58047180060593,
            18.820872271154933
          ],
          [
            72.57902716242191,
            18.820193752891168
          ],
          [
            72.57748479619823,
            18.81950648025048
          ],
          [
            72.5759996592422,
            18.818802918765883
          ],
          [
            72.57452339076295,
            18.81809761662325
          ],
          [
            72.57297799728892,
            18.81744773903599
          ],
          [
            72.57146769898219,
            18.816695451611743
          ],
          [
            72.570017461132,
            18.81599717208996
          ],
          [
            72.5684534925725,
            18.815302828389463
          ],
          [
            72.56698943147737,
            18.81458832639286
          ],
          [
            72.56549938334972,
            18.813898182581408
          ],
          [
            72.56398450696287,
            18.81321342456023
          ],
          [
            72.56250140838254,
            18.81247938565936
          ],
          [
            72.56103412183516,
            18.811774093176307
          ],
          [
            72.55946815973995,
            18.81112218339623
          ],
          [
            72.5580088490921,
            18.81039920587435
          ],
          [
            72.55649075745849,
            18.80970340353886
          ],
          [
            72.55499547090831,
            18.808982477801518
          ],
          [
            72.5534700525366,
            18.808317579080555
          ],
          [
            72.55202087486796,
            18.80759662696493
          ],
          [
            72.55048876386913,
            18.80691743868733
          ],
          [
            72.54900533472336,
            18.80615984213898
          ],
          [
            72.54747848528082,
            18.80549100059236
          ],
          [
            72.5459416568024,
            18.80481103717543
          ],
          [
            72.54447965551317,
            18.804088337698552
          ],
          [
            72.5430018965372,
            18.80337450763196
          ],
          [
            72.54147950942173,
            18.8027043060526
          ],
          [
            72.54001593088061,
            18.80199139083333
          ],
          [
            72.5384949587437,
            18.80130062094401
          ],
          [
            72.53699816919962,
            18.80060607674851
          ],
          [
            72.5355355436568,
            18.79987470916016
          ],
          [
            72.53397056375297,
            18.799173330513625
          ],
          [
            72.53250589185684,
            18.798480126042456
          ],
          [
            72.53105714876847,
            18.79782317899165
          ],
          [
            72.52949935325762,
            18.79711929101364
          ],
          [
            72.52800774117459,
            18.796408145277876
          ],
          [
            72.52651569377431,
            18.79570189185066
          ],
          [
            72.52500422772951,
            18.79498403693284
          ],
          [
            72.52350135342516,
            18.794283817480306
          ],
          [
            72.52201692608125,
            18.793604978678207
          ],
          [
            72.52051462984815,
            18.79289872982651
          ],
          [
            72.51902494422843,
            18.792212099867516
          ],
          [
            72.51749253182126,
            18.791512060137062
          ],
          [
            72.51600073610999,
            18.79078001710217
          ],
          [
            72.51450875311347,
            18.790090876876075
          ],
          [
            72.51298463288681,
            18.78940185358892
          ],
          [
            72.51147912111857,
            18.7886815304044
          ],
          [
            72.5100233134418,
            18.787998905911262
          ],
          [
            72.50849610040227,
            18.787302764102584
          ],
          [
            72.50703772378317,
            18.786574438232744
          ],
          [
            72.50552282961536,
            18.785908933230303
          ],
          [
            72.5039901355631,
            18.785207387161197
          ],
          [
            72.50249459206115,
            18.78454468772492
          ],
          [
            72.50099932793121,
            18.78380521508768
          ],
          [
            72.49948616460513,
            18.783096472680988
          ],
          [
            72.49798003952814,
            18.7824313999697
          ]
        ]
      },
      "properties": {
        "candidate_id": "candidate-8fcff6b97422",
        "rank": 3,
        "investigative_priority_score": 0.14847693819325386,
        "point_count": 169,
        "time_start_utc": "2026-08-19T04:30:00+00:00",
        "time_end_utc": "2026-08-19T18:30:00+00:00"
      }
    }
  ]
}
