{
  "type": "Feature",
  "geometry": {
    "type": "Polygon",
    "coordinates": [
      [
        [
          72.43896191949268,
          18.65
        ],
        [
          72.4387996976428,
          18.652345062742004
        ],
        [
          72.43831580775401,
          18.65465000081032
        ],
        [
          72.43751852931642,
          18.656875376075547
        ],
        [
          72.43642150398519,
          18.658983111749908
        ],
        [
          72.43504350216786,
          18.66093714389164
        ],
        [
          72.4334081018576,
          18.662704038469034
        ],
        [
          72.43154328520711,
          18.664253563426
        ],
        [
          72.42948095974634,
          18.66555920596091
        ],
        [
          72.4272564124357,
          18.666598626168007
        ],
        [
          72.42490770589642,
          18.667354039279356
        ],
        [
          72.42247502714856,
          18.66781251996719
        ],
        [
          72.42,
          18.667966223499818
        ],
        [
          72.41752497285144,
          18.66781251996719
        ],
        [
          72.41509229410359,
          18.667354039279356
        ],
        [
          72.41274358756431,
          18.666598626168007
        ],
        [
          72.41051904025366,
          18.66555920596091
        ],
        [
          72.40845671479289,
          18.664253563426
        ],
        [
          72.40659189814241,
          18.662704038469034
        ],
        [
          72.40495649783215,
          18.66093714389164
        ],
        [
          72.40357849601482,
          18.658983111749908
        ],
        [
          72.40248147068358,
          18.656875376075547
        ],
        [
          72.401684192246,
          18.65465000081032
        ],
        [
          72.4012003023572,
          18.652345062742004
        ],
        [
          72.40103808050732,
          18.65
        ],
        [
          72.4012003023572,
          18.647654937257993
        ],
        [
          72.401684192246,
          18.645349999189676
        ],
        [
          72.40248147068358,
          18.64312462392445
        ],
        [
          72.40357849601482,
          18.64101688825009
        ],
        [
          72.40495649783215,
          18.639062856108357
        ],
        [
          72.40659189814241,
          18.637295961530963
        ],
        [
          72.40845671479289,
          18.635746436573996
        ],
        [
          72.41051904025366,
          18.634440794039087
        ],
        [
          72.41274358756431,
          18.63340137383199
        ],
        [
          72.41509229410359,
          18.63264596072064
        ],
        [
          72.41752497285144,
          18.63218748003281
        ],
        [
          72.42,
          18.63203377650018
        ],
        [
          72.42247502714856,
          18.63218748003281
        ],
        [
          72.42490770589642,
          18.63264596072064
        ],
        [
          72.4272564124357,
          18.63340137383199
        ],
        [
          72.42948095974634,
          18.634440794039087
        ],
        [
          72.43154328520711,
          18.635746436573996
        ],
        [
          72.4334081018576,
          18.637295961530963
        ],
        [
          72.43504350216786,
          18.639062856108357
        ],
        [
          72.43642150398519,
          18.64101688825009
        ],
        [
          72.43751852931642,
          18.64312462392445
        ],
        [
          72.43831580775401,
          18.645349999189676
        ],
        [
          72.4387996976428,
          18.647654937257993
        ],
        [
          72.43896191949268,
          18.65
        ]
      ]
    ]
  },
  "properties": {
    "case_id": "CASE_DEMO_001",
    "phase2_run_id": "DRIFT_RUN_001",
    "density_level": 50,
    "radius_m": 2000.0,
    "scenario_type": "controlled_synthetic_demo"
  }
}
