{
  "type": "Feature",
  "geometry": {
    "type": "Polygon",
    "coordinates": [
      [
        [
          72.46740479873172,
          18.65
        ],
        [
          72.46699924410703,
          18.655862656855014
        ],
        [
          72.465789519385,
          18.661625002025804
        ],
        [
          72.46379632329105,
          18.667188440188873
        ],
        [
          72.46105375996295,
          18.672457779374774
        ],
        [
          72.45760875541964,
          18.6773428597291
        ],
        [
          72.45352025464398,
          18.68176009617259
        ],
        [
          72.44885821301779,
          18.685633908565002
        ],
        [
          72.44370239936586,
          18.688898014902282
        ],
        [
          72.43814103108923,
          18.691496565420017
        ],
        [
          72.43226926474102,
          18.693385098198394
        ],
        [
          72.42618756787141,
          18.694531299917973
        ],
        [
          72.42,
          18.69491555874955
        ],
        [
          72.4138124321286,
          18.694531299917973
        ],
        [
          72.40773073525898,
          18.693385098198394
        ],
        [
          72.40185896891077,
          18.691496565420017
        ],
        [
          72.39629760063414,
          18.688898014902282
        ],
        [
          72.39114178698222,
          18.685633908565002
        ],
        [
          72.38647974535603,
          18.68176009617259
        ],
        [
          72.38239124458036,
          18.6773428597291
        ],
        [
          72.37894624003705,
          18.672457779374774
        ],
        [
          72.37620367670895,
          18.667188440188873
        ],
        [
          72.374210480615,
          18.661625002025804
        ],
        [
          72.37300075589297,
          18.655862656855014
        ],
        [
          72.37259520126828,
          18.65
        ],
        [
          72.37300075589297,
          18.644137343144983
        ],
        [
          72.374210480615,
          18.638374997974193
        ],
        [
          72.37620367670895,
          18.632811559811124
        ],
        [
          72.37894624003705,
          18.627542220625223
        ],
        [
          72.38239124458036,
          18.622657140270896
        ],
        [
          72.38647974535603,
          18.61823990382741
        ],
        [
          72.39114178698222,
          18.614366091434995
        ],
        [
          72.39629760063414,
          18.611101985097715
        ],
        [
          72.40185896891077,
          18.60850343457998
        ],
        [
          72.40773073525898,
          18.606614901801603
        ],
        [
          72.4138124321286,
          18.605468700082024
        ],
        [
          72.42,
          18.605084441250447
        ],
        [
          72.42618756787141,
          18.605468700082024
        ],
        [
          72.43226926474102,
          18.606614901801603
        ],
        [
          72.43814103108923,
          18.60850343457998
        ],
        [
          72.44370239936586,
          18.611101985097715
        ],
        [
          72.44885821301779,
          18.614366091434995
        ],
        [
          72.45352025464398,
          18.61823990382741
        ],
        [
          72.45760875541964,
          18.622657140270896
        ],
        [
          72.46105375996295,
          18.627542220625223
        ],
        [
          72.46379632329105,
          18.632811559811124
        ],
        [
          72.465789519385,
          18.638374997974193
        ],
        [
          72.46699924410703,
          18.644137343144983
        ],
        [
          72.46740479873172,
          18.65
        ]
      ]
    ]
  },
  "properties": {
    "case_id": "CASE_DEMO_001",
    "phase2_run_id": "DRIFT_RUN_001",
    "density_level": 75,
    "radius_m": 5000.0,
    "scenario_type": "controlled_synthetic_demo"
  }
}
