{
  "type": "Feature",
  "geometry": {
    "type": "Polygon",
    "coordinates": [
      [
        [
          72.5053286377171,
          18.65
        ],
        [
          72.50459863939264,
          18.660552782339025
        ],
        [
          72.502421134893,
          18.67092500364645
        ],
        [
          72.49883338192389,
          18.68093919233997
        ],
        [
          72.49389676793332,
          18.690424002874593
        ],
        [
          72.48769575975535,
          18.699217147512382
        ],
        [
          72.48033645835916,
          18.70716817311066
        ],
        [
          72.47194478343202,
          18.714141035417004
        ],
        [
          72.46266431885854,
          18.72001642682411
        ],
        [
          72.45265385596062,
          18.72469381775603
        ],
        [
          72.44208467653384,
          18.72809317675711
        ],
        [
          72.43113762216854,
          18.730156339852353
        ],
        [
          72.42,
          18.73084800574919
        ],
        [
          72.40886237783147,
          18.730156339852353
        ],
        [
          72.39791532346617,
          18.72809317675711
        ],
        [
          72.38734614403938,
          18.72469381775603
        ],
        [
          72.37733568114146,
          18.72001642682411
        ],
        [
          72.36805521656798,
          18.714141035417004
        ],
        [
          72.35966354164084,
          18.70716817311066
        ],
        [
          72.35230424024465,
          18.699217147512382
        ],
        [
          72.34610323206668,
          18.690424002874593
        ],
        [
          72.34116661807612,
          18.68093919233997
        ],
        [
          72.337578865107,
          18.67092500364645
        ],
        [
          72.33540136060736,
          18.660552782339025
        ],
        [
          72.3346713622829,
          18.65
        ],
        [
          72.33540136060736,
          18.639447217660972
        ],
        [
          72.337578865107,
          18.62907499635355
        ],
        [
          72.34116661807612,
          18.619060807660027
        ],
        [
          72.34610323206668,
          18.609575997125404
        ],
        [
          72.35230424024465,
          18.600782852487615
        ],
        [
          72.35966354164084,
          18.592831826889338
        ],
        [
          72.36805521656798,
          18.585858964582993
        ],
        [
          72.37733568114146,
          18.579983573175888
        ],
        [
          72.38734614403938,
          18.575306182243967
        ],
        [
          72.39791532346617,
          18.571906823242887
        ],
        [
          72.40886237783147,
          18.569843660147644
        ],
        [
          72.42,
          18.569151994250806
        ],
        [
          72.43113762216854,
          18.569843660147644
        ],
        [
          72.44208467653384,
          18.571906823242887
        ],
        [
          72.45265385596062,
          18.575306182243967
        ],
        [
          72.46266431885854,
          18.579983573175888
        ],
        [
          72.47194478343202,
          18.585858964582993
        ],
        [
          72.48033645835916,
          18.592831826889338
        ],
        [
          72.48769575975535,
          18.600782852487615
        ],
        [
          72.49389676793332,
          18.609575997125404
        ],
        [
          72.49883338192389,
          18.619060807660027
        ],
        [
          72.502421134893,
          18.62907499635355
        ],
        [
          72.50459863939264,
          18.639447217660972
        ],
        [
          72.5053286377171,
          18.65
        ]
      ]
    ]
  },
  "properties": {
    "case_id": "CASE_DEMO_001",
    "phase2_run_id": "DRIFT_RUN_001",
    "density_level": 90,
    "radius_m": 9000.0,
    "scenario_type": "controlled_synthetic_demo"
  }
}
